[{"OBJECT_NAME":"TRANSPORTER-10 OBJECT AG","OBJECT_ID":"2024-043AG","EPOCH":"2026-03-09T22:12:45.387648","MEAN_MOTION":15.30759727,"ECCENTRICITY":0.00093005,"INCLINATION":97.5471,"RA_OF_ASC_NODE":205.7101,"ARG_OF_PERICENTER":226.5958,"MEAN_ANOMALY":133.4509,"EPHEMERIS_TYPE":0,"CLASSIFICATION_TYPE":"U","NORAD_CAT_ID":59128,"ELEMENT_SET_NO":999,"REV_AT_EPOCH":11192,"BSTAR":0.00032170115,"MEAN_MOTION_DOT":9.498e-5,"MEAN_MOTION_DDOT":0},{"OBJECT_NAME":"STARLINK-33579","OBJECT_ID":"2025-015G","EPOCH":"2026-03-09T22:26:05.816256","MEAN_MOTION":15.30224913,"ECCENTRICITY":0.0001458,"INCLINATION":53.1584,"RA_OF_ASC_NODE":320.968,"ARG_OF_PERICENTER":139.9087,"MEAN_ANOMALY":220.2021,"EPHEMERIS_TYPE":0,"CLASSIFICATION_TYPE":"U","NORAD_CAT_ID":62764,"ELEMENT_SET_NO":999,"REV_AT_EPOCH":6452,"BSTAR":0.0011321497,"MEAN_MOTION_DOT":0.00033348,"MEAN_MOTION_DDOT":0}]
